TIANHUI 2-02A           
1 49071U 21074A   26068.51139512  .00002637  00000+0  13771-3 0  9993
2 49071  97.4829  73.0470 0001796 100.8140 259.3296 15.16780969252164
LEMUR-2-TILLINFINITY    
1 63356U 25061F   26068.90312914  .00005472  00000+0  30454-3 0  9994
2 63356  97.5532  45.5587 0016891 226.7020 133.2804 15.13945199 52616
