[{"OBJECT_NAME":"TIANHUI 2-02A","OBJECT_ID":"2021-074A","EPOCH":"2026-03-09T12:16:24.538368","MEAN_MOTION":15.16780969,"ECCENTRICITY":0.0001796,"INCLINATION":97.4829,"RA_OF_ASC_NODE":73.047,"ARG_OF_PERICENTER":100.814,"MEAN_ANOMALY":259.3296,"EPHEMERIS_TYPE":0,"CLASSIFICATION_TYPE":"U","NORAD_CAT_ID":49071,"ELEMENT_SET_NO":999,"REV_AT_EPOCH":25216,"BSTAR":0.00013771,"MEAN_MOTION_DOT":2.637e-5,"MEAN_MOTION_DDOT":0},{"OBJECT_NAME":"LEMUR-2-TILLINFINITY","OBJECT_ID":"2025-061F","EPOCH":"2026-03-09T21:40:30.357696","MEAN_MOTION":15.139452,"ECCENTRICITY":0.00168906,"INCLINATION":97.5532,"RA_OF_ASC_NODE":45.5587,"ARG_OF_PERICENTER":226.702,"MEAN_ANOMALY":133.2804,"EPHEMERIS_TYPE":0,"CLASSIFICATION_TYPE":"U","NORAD_CAT_ID":63356,"ELEMENT_SET_NO":999,"REV_AT_EPOCH":5261,"BSTAR":0.00030453504,"MEAN_MOTION_DOT":5.472e-5,"MEAN_MOTION_DDOT":0}]
